{
"type": "FeatureCollection",
"name": "cams_fov",
"crs": { "type": "name", "properties": { "name": "urn:ogc:def:crs:OGC:1.3:CRS84" } },
"features": [
{ "type": "Feature", "properties": { "id": 10, "rotation": 20, "name": "gradas_cam1" }, "geometry": { "type": "Polygon", "coordinates": [ [ [ -100.286949063663471, 25.652256845082373 ], [ -100.286930213511354, 25.652264863386332 ], [ -100.286910860111661, 25.652271576616382 ], [ -100.286891093699509, 25.652276953474935 ], [ -100.286871006443093, 25.652280968890405 ], [ -100.286850691987624, 25.652283604142209 ], [ -100.286830245058795, 25.652284846943072 ], [ -100.286809760982564, 25.652284691498604 ], [ -100.286789335266789, 25.652283138534582 ], [ -100.28676906314648, 25.652280195289674 ], [ -100.286749039139963, 25.652275875489064 ], [ -100.286729356605051, 25.652270199271694 ], [ -100.286710107317035, 25.65226319310295 ], [ -100.286691381017576, 25.652254889649154 ], [ -100.286673265025442, 25.652245327625675 ], [ -100.286655843799949, 25.652234551614125 ], [ -100.286639198566249, 25.652222611856811 ], [ -100.286623406936982, 25.652209564023902 ], [ -100.286608542533926, 25.652195468948772 ], [ -100.286594674667853, 25.652180392350598 ], [ -100.28658186799656, 25.652164404522406 ], [ -100.286570182222917, 25.652147580005927 ], [ -100.286559671840209, 25.652129997248263 ], [ -100.286550385848827, 25.652111738224782 ], [ -100.286822278184943, 25.651984952746261 ], [ -100.286949063663471, 25.652256845082373 ] ] ] } },
{ "type": "Feature", "properties": { "id": 14, "rotation": -100, "name": "banorte_cam2" }, "geometry": { "type": "Polygon", "coordinates": [ [ [ -100.285962612328106, 25.653361864605916 ], [ -100.285978981461071, 25.653374180168608 ], [ -100.285994471989383, 25.653387584088247 ], [ -100.286009011691917, 25.653402013872434 ], [ -100.286022532771298, 25.653417402241754 ], [ -100.286034972192269, 25.653433677447534 ], [ -100.286046271954532, 25.653450763608813 ], [ -100.286056379376518, 25.65346858106113 ], [ -100.28606524732821, 25.653487046732149 ], [ -100.28607283446398, 25.653506074525463 ], [ -100.28607910540812, 25.653525575725322 ], [ -100.286084030925835, 25.653545459406811 ], [ -100.286087588050563, 25.653565632865135 ], [ -100.286089760196759, 25.653586002041262 ], [ -100.286090537239929, 25.653606471963936 ], [ -100.286089915553006, 25.653626947194422 ], [ -100.286087898035461, 25.653647332266697 ], [ -100.286084494095107, 25.653667532136748 ], [ -100.286079719604444, 25.653687452622759 ], [ -100.286073596820628, 25.653707000846222 ], [ -100.286066154290879, 25.653726085665763 ], [ -100.286057426717875, 25.653744618096876 ], [ -100.286047454796048, 25.653762511735291 ], [ -100.286036285010482, 25.653779683150109 ], [ -100.285790539397198, 25.653607610219204 ], [ -100.285962612328106, 25.653361864605916 ] ] ] } },
{ "type": "Feature", "properties": { "id": 17, "rotation": 130, "name": "banorte_cam1" }, "geometry": { "type": "Polygon", "coordinates": [ [ [ -100.285491102365782, 25.653633515492693 ], [ -100.285490014761294, 25.653613059719643 ], [ -100.285490325637497, 25.653592577412834 ], [ -100.285492033555769, 25.65357216407028 ], [ -100.2854951305453, 25.653551914867418 ], [ -100.285499602170589, 25.653531924217528 ], [ -100.285505427582379, 25.65351228532381 ], [ -100.285512579619521, 25.65349308975328 ], [ -100.285521024936301, 25.653474427004763 ], [ -100.285530724155237, 25.653456384091438 ], [ -100.285541632052613, 25.653439045138835 ], [ -100.285553697776763, 25.653422490989211 ], [ -100.285566865066343, 25.653406798824104 ], [ -100.285581072530462, 25.653392041809635 ], [ -100.285596253928802, 25.653378288748169 ], [ -100.285612338477208, 25.653365603763628 ], [ -100.285629251182385, 25.653354045999546 ], [ -100.285646913191144, 25.653343669342572 ], [ -100.285665242154195, 25.653334522174188 ], [ -100.285684152611779, 25.653326647142418 ], [ -100.285703556397479, 25.653320080965383 ], [ -100.2857233630384, 25.65331485425531 ], [ -100.285743480188088, 25.653310991384384 ], [ -100.285763814052373, 25.653308510360443 ], [ -100.285789960775205, 25.653607368769869 ], [ -100.285491102365782, 25.653633515492693 ] ] ] } },
{ "type": "Feature", "properties": { "id": 1, "rotation": 160, "name": "skyspace_cam4" }, "geometry": { "type": "Polygon", "coordinates": [ [ [ -100.287046061832754, 25.651665326728757 ], [ -100.287055347824193, 25.651647067706104 ], [ -100.287065858206901, 25.651629484947531 ], [ -100.287077543980544, 25.651612660432871 ], [ -100.287090350651837, 25.651596672604679 ], [ -100.287104218517911, 25.651581596005595 ], [ -100.287119082920967, 25.651567500931375 ], [ -100.287134874550233, 25.651554453097557 ], [ -100.287151519783933, 25.651542513340242 ], [ -100.287168941009426, 25.651531737328693 ], [ -100.28718705700156, 25.651522175305214 ], [ -100.287205783301019, 25.651513871851417 ], [ -100.287225032589035, 25.651506865683583 ], [ -100.287244715123947, 25.651501189465304 ], [ -100.287264739130464, 25.651496869664694 ], [ -100.287285011250773, 25.651493926419786 ], [ -100.287305436966548, 25.651492373455763 ], [ -100.287325921042779, 25.651492218011295 ], [ -100.287346367971608, 25.651493460812159 ], [ -100.287366682427077, 25.651496096063962 ], [ -100.287386769683494, 25.651500111480342 ], [ -100.287406536095645, 25.651505488337076 ], [ -100.287425889495339, 25.651512201568035 ], [ -100.287444739647398, 25.651520219871166 ], [ -100.28731795416887, 25.651792112207279 ], [ -100.287046061832754, 25.651665326728757 ] ] ] } },
{ "type": "Feature", "properties": { "id": 3, "rotation": 130, "name": "florecimiento_cam2" }, "geometry": { "type": "Polygon", "coordinates": [ [ [ -100.28723476718649, 25.651870509112069 ], [ -100.287233679580808, 25.651850053339327 ], [ -100.287233990460649, 25.651829571031609 ], [ -100.287235698375284, 25.651809157689964 ], [ -100.287238795368452, 25.651788908487102 ], [ -100.287243266993741, 25.651768917836304 ], [ -100.287249092405531, 25.651749278943495 ], [ -100.287256244439035, 25.651730083372964 ], [ -100.287264689755816, 25.651711420624448 ], [ -100.287274388974751, 25.651693377711123 ], [ -100.287285296872128, 25.65167603875852 ], [ -100.287297362596277, 25.651659484607986 ], [ -100.287310529885858, 25.651643792443789 ], [ -100.287324737349977, 25.65162903542841 ], [ -100.287339918748316, 25.651615282367853 ], [ -100.287356003296722, 25.651602597383313 ], [ -100.2873729160019, 25.651591039618321 ], [ -100.287390578010658, 25.651580662962257 ], [ -100.28740890697371, 25.651571515793872 ], [ -100.287427817431293, 25.651563640762102 ], [ -100.287447221216993, 25.651557074584158 ], [ -100.287467027857915, 25.651551847874995 ], [ -100.287487145011241, 25.651547985004068 ], [ -100.287507478873081, 25.651545503979818 ], [ -100.287533625595913, 25.651844362389244 ], [ -100.28723476718649, 25.651870509112069 ] ] ] } },
{ "type": "Feature", "properties": { "id": 4, "rotation": -40, "name": "florecimiento_cam1" }, "geometry": { "type": "Polygon", "coordinates": [ [ [ -100.287542594176429, 25.651890505981314 ], [ -100.287540113153213, 25.651910839847002 ], [ -100.287536250281832, 25.651930956997145 ], [ -100.287531023572214, 25.65195076363943 ], [ -100.287524457395179, 25.651970167424221 ], [ -100.287516582364319, 25.651989077882714 ], [ -100.287507435197753, 25.652007406844856 ], [ -100.28749705853987, 25.652025068852705 ], [ -100.287485500775787, 25.652041981558792 ], [ -100.287472815791247, 25.652058066108108 ], [ -100.287459062728871, 25.652073247506447 ], [ -100.287444305715312, 25.652087454971475 ], [ -100.287428613548386, 25.652100622261056 ], [ -100.287412059398761, 25.652112687983387 ], [ -100.287394720446159, 25.652123595882582 ], [ -100.287376677533743, 25.652133295100608 ], [ -100.287358014786136, 25.652141740416479 ], [ -100.287338819216515, 25.652148892452711 ], [ -100.287319180322797, 25.652154717863592 ], [ -100.287299189672908, 25.652159189488881 ], [ -100.287278940468227, 25.65216228648023 ], [ -100.287258527125218, 25.652163994396229 ], [ -100.287238044820683, 25.652164305275615 ], [ -100.287217589044175, 25.652163217667916 ], [ -100.287243735767007, 25.651864359258489 ], [ -100.287542594176429, 25.651890505981314 ] ] ] } },
{ "type": "Feature", "properties": { "id": 6, "rotation": 130, "name": "wellness_cam1" }, "geometry": { "type": "Polygon", "coordinates": [ [ [ -100.287475993034008, 25.652090632842203 ], [ -100.287474905428084, 25.652070177069614 ], [ -100.287475216307925, 25.652049694761896 ], [ -100.28747692422256, 25.652029281419342 ], [ -100.287480021215728, 25.652009032217389 ], [ -100.287484492841017, 25.651989041566591 ], [ -100.287490318252807, 25.651969402673782 ], [ -100.287497470286311, 25.651950207103251 ], [ -100.287505915603091, 25.651931544354735 ], [ -100.287515614822027, 25.65191350144141 ], [ -100.287526522719403, 25.651896162488807 ], [ -100.287538588443553, 25.651879608338273 ], [ -100.287551755733134, 25.651863916174076 ], [ -100.287565963197252, 25.651849159158697 ], [ -100.287581144595592, 25.651835406097231 ], [ -100.287597229143998, 25.651822721112691 ], [ -100.287614141852814, 25.651811163348608 ], [ -100.287631803857934, 25.651800786691634 ], [ -100.287650132820986, 25.651791639524159 ], [ -100.287669043278569, 25.651783764492389 ], [ -100.287688447064269, 25.651777198314445 ], [ -100.28770825370519, 25.651771971605282 ], [ -100.287728370858517, 25.651768108733446 ], [ -100.287748704720599, 25.651765627709953 ], [ -100.28777485144343, 25.652064486119379 ], [ -100.287475993034008, 25.652090632842203 ] ] ] } },
{ "type": "Feature", "properties": { "id": 8, "rotation": 55, "name": "wellness_cam2" }, "geometry": { "type": "Polygon", "coordinates": [ [ [ -100.287542560948012, 25.652339419341619 ], [ -100.287522520695333, 25.652335175546792 ], [ -100.287502816769106, 25.652329574048505 ], [ -100.287483541036622, 25.6523226409663 ], [ -100.287464783366872, 25.652314408624076 ], [ -100.287446631224142, 25.652304915403871 ], [ -100.287429169238735, 25.652294205569884 ], [ -100.287412478824976, 25.652282329053374 ], [ -100.287396637799233, 25.652269341230745 ], [ -100.287381720027028, 25.652255302655245 ], [ -100.287367795055602, 25.652240278782298 ], [ -100.287354927815599, 25.652224339660275 ], [ -100.287343178293654, 25.65220755960399 ], [ -100.287332601274088, 25.652190016850906 ], [ -100.287323246073342, 25.652171793191879 ], [ -100.287315156303507, 25.652152973595545 ], [ -100.28730836969406, 25.652133645806313 ], [ -100.287302917877227, 25.652113899939646 ], [ -100.287298826275205, 25.652093828060057 ], [ -100.287296113965553, 25.65207352375182 ], [ -100.287294793593887, 25.652053081683331 ], [ -100.287294871315666, 25.652032597164631 ], [ -100.287296346770731, 25.652012165704033 ], [ -100.2872992130754, 25.651991882562417 ], [ -100.287594655401307, 25.652043977015715 ], [ -100.287542560948012, 25.652339419341619 ] ] ] } },
{ "type": "Feature", "properties": { "id": 2, "rotation": 100, "name": "skyspace_cam2" }, "geometry": { "type": "Polygon", "coordinates": [ [ [ -100.286811321247114, 25.65210501567234 ], [ -100.286800151465272, 25.652087844257036 ], [ -100.286790179543445, 25.652069950619531 ], [ -100.286781451970441, 25.652051418187508 ], [ -100.286774009440691, 25.652032333368876 ], [ -100.286767886656875, 25.652012785144503 ], [ -100.286763112166213, 25.651992864658492 ], [ -100.286759708225858, 25.651972664788442 ], [ -100.286757690708313, 25.651952279716166 ], [ -100.286757069021391, 25.65193180448659 ], [ -100.28675784606456, 25.651911334563007 ], [ -100.286760018210757, 25.651890965387789 ], [ -100.286763575335485, 25.651870791929465 ], [ -100.286768500853199, 25.651850908247066 ], [ -100.28677477179734, 25.651831407048117 ], [ -100.28678235893311, 25.651812379254803 ], [ -100.286791226884802, 25.651793913583784 ], [ -100.286801334306787, 25.651776096131467 ], [ -100.286812634069051, 25.651759009970188 ], [ -100.286825073490022, 25.651742734763499 ], [ -100.286838594569403, 25.651727346395088 ], [ -100.286853134271936, 25.651712916610901 ], [ -100.286868624800249, 25.651699512690353 ], [ -100.28688499392949, 25.651687197128147 ], [ -100.287057066860399, 25.651932942741436 ], [ -100.286811321247114, 25.65210501567234 ] ] ] } },
{ "type": "Feature", "properties": { "id": 9, "rotation": -80, "name": "skyspace_cam1" }, "geometry": { "type": "Polygon", "coordinates": [ [ [ -100.286774241858026, 25.651454907247363 ], [ -100.286785411641162, 25.65147207866357 ], [ -100.286795383566627, 25.651489972300165 ], [ -100.286804111139631, 25.651508504733098 ], [ -100.286811553665743, 25.65152758955173 ], [ -100.286817676449559, 25.651547137776102 ], [ -100.286822450943859, 25.651567058262113 ], [ -100.286825854884214, 25.651587258132164 ], [ -100.286827872401759, 25.651607643204439 ], [ -100.286828494088681, 25.651628118434015 ], [ -100.286827717045512, 25.651648588357599 ], [ -100.286825544899315, 25.651668957532817 ], [ -100.286821987774587, 25.651689130991141 ], [ -100.286817062256873, 25.651709014673539 ], [ -100.286810791309094, 25.651728515872488 ], [ -100.286803204173324, 25.651747543665802 ], [ -100.286794336221632, 25.651766009336821 ], [ -100.286784228803285, 25.651783826789138 ], [ -100.286772929041021, 25.651800912950417 ], [ -100.28676048962005, 25.651817188157107 ], [ -100.286746968537031, 25.651832576525518 ], [ -100.286732428838135, 25.651847006308795 ], [ -100.286716938309823, 25.651860410230253 ], [ -100.28670056917565, 25.651872725791556 ], [ -100.286528496244742, 25.651626980178268 ], [ -100.286774241858026, 25.651454907247363 ] ] ] } },
{ "type": "Feature", "properties": { "id": 11, "rotation": 20, "name": "skyspace_cam3" }, "geometry": { "type": "Polygon", "coordinates": [ [ [ -100.286861528608995, 25.652124361719249 ], [ -100.286842678455272, 25.652132380022518 ], [ -100.286823325055579, 25.652139093253478 ], [ -100.286803558647065, 25.652144470111121 ], [ -100.286783471387011, 25.652148485527501 ], [ -100.28676315693518, 25.652151120778395 ], [ -100.286742710002713, 25.652152363580168 ], [ -100.286722225926482, 25.6521522081357 ], [ -100.286701800210707, 25.652150655171678 ], [ -100.286681528090398, 25.652147711926769 ], [ -100.286661504083881, 25.65214339212525 ], [ -100.286641821552607, 25.65213771590788 ], [ -100.286622572260953, 25.652130709740046 ], [ -100.286603845965132, 25.652122406286249 ], [ -100.28658572996936, 25.652112844262771 ], [ -100.286568308743867, 25.652102068250311 ], [ -100.286551663513805, 25.652090128493906 ], [ -100.286535871880901, 25.652077080660089 ], [ -100.286521007481483, 25.652062985585868 ], [ -100.286507139615409, 25.652047908986784 ], [ -100.286494332940478, 25.652031921158592 ], [ -100.286482647170473, 25.652015096643023 ], [ -100.286472136787765, 25.651997513885359 ], [ -100.286462850794351, 25.651979254861658 ], [ -100.286734743130467, 25.651852469383137 ], [ -100.286861528608995, 25.652124361719249 ] ] ] } },
{ "type": "Feature", "properties": { "id": 12, "rotation": -170, "name": "subestacion_cam4" }, "geometry": { "type": "Polygon", "coordinates": [ [ [ -100.286195942511426, 25.651939706940148 ], [ -100.286213113929975, 25.651928537158707 ], [ -100.286231007565206, 25.651918565233697 ], [ -100.286249539996774, 25.651909837662057 ], [ -100.286268624819044, 25.651902395133217 ], [ -100.286288173039779, 25.651896272349401 ], [ -100.286308093527609, 25.651891497856919 ], [ -100.286328293397659, 25.651888093916565 ], [ -100.286348678469935, 25.651886076399929 ], [ -100.286369153698601, 25.651885454713007 ], [ -100.286389623623094, 25.651886231754357 ], [ -100.286409992797402, 25.651888403901463 ], [ -100.286430166255727, 25.651891961027101 ], [ -100.286450049938125, 25.651896886544815 ], [ -100.286469551137984, 25.651903157490775 ], [ -100.286488578931298, 25.651910744626544 ], [ -100.286507044602317, 25.651919612577327 ], [ -100.286524862054634, 25.651929719996584 ], [ -100.286541948215003, 25.651941019759757 ], [ -100.286558223422603, 25.651953459180728 ], [ -100.286573611792832, 25.651966980262838 ], [ -100.286588041573836, 25.651981519962188 ], [ -100.286601445495748, 25.651997010490955 ], [ -100.286613761055619, 25.652013379622531 ], [ -100.286368015442335, 25.652185452553436 ], [ -100.286195942511426, 25.651939706940148 ] ] ] } },
{ "type": "Feature", "properties": { "id": 15, "rotation": 45, "name": "subestacion_cam2" }, "geometry": { "type": "Polygon", "coordinates": [ [ [ -100.286213774283368, 25.65264946769036 ], [ -100.286193301562875, 25.652648768321338 ], [ -100.286172924290426, 25.652646673474461 ], [ -100.28615273748072, 25.652643192916909 ], [ -100.286132835255543, 25.65263834287725 ], [ -100.286113310401547, 25.652632145967797 ], [ -100.286094253959149, 25.652624631081377 ], [ -100.286075754775069, 25.652615833256274 ], [ -100.286057899098509, 25.652605793512517 ], [ -100.286040770188251, 25.652594558659072 ], [ -100.286024447901568, 25.652582181078284 ], [ -100.286009008341338, 25.652568718480321 ], [ -100.285994523495887, 25.65255423363396 ], [ -100.285981060897015, 25.652538794073731 ], [ -100.285968683318046, 25.652522471787048 ], [ -100.2859574484646, 25.65250534287588 ], [ -100.285947408719935, 25.652487487202048 ], [ -100.285938610893922, 25.652468988017969 ], [ -100.285931096008412, 25.652449931574662 ], [ -100.285924899100777, 25.652430406722484 ], [ -100.285920049060209, 25.652410504494579 ], [ -100.285916568500383, 25.652390317685327 ], [ -100.28591447365396, 25.652369940415152 ], [ -100.285913774283372, 25.65234946769036 ], [ -100.286213774283368, 25.65234946769036 ], [ -100.286213774283368, 25.65264946769036 ] ] ] } },
{ "type": "Feature", "properties": { "id": 16, "rotation": -150, "name": "subestacion_cam1" }, "geometry": { "type": "Polygon", "coordinates": [ [ [ -100.286137685285269, 25.652054413472015 ], [ -100.286157641428858, 25.652049790280213 ], [ -100.286177866550119, 25.652046539721137 ], [ -100.286198266341657, 25.652044676950933 ], [ -100.286218745703067, 25.652044210654818 ], [ -100.286239209137406, 25.652045143006031 ], [ -100.286259561245956, 25.652047469658097 ], [ -100.286279707128401, 25.652051179763472 ], [ -100.286299552863042, 25.652056256022657 ], [ -100.286319005914251, 25.652062674769692 ], [ -100.286337975587216, 25.652070406075833 ], [ -100.286356373431758, 25.652079413895077 ], [ -100.286374113675251, 25.652089656227869 ], [ -100.286391113597332, 25.652101085320279 ], [ -100.286407293940997, 25.652113647885013 ], [ -100.286422579265476, 25.652127285348794 ], [ -100.286436898302767, 25.652141934128846 ], [ -100.286450184288682, 25.652157525923936 ], [ -100.286462375282994, 25.652173988039063 ], [ -100.286473414442284, 25.65219124372015 ], [ -100.286483250296428, 25.652209212512386 ], [ -100.286491836985064, 25.65222781063812 ], [ -100.286499134479513, 25.652246951383855 ], [ -100.286505108746681, 25.652266545506372 ], [ -100.2862153309988, 25.652344191219903 ], [ -100.286137685285269, 25.652054413472015 ] ] ] } },
{ "type": "Feature", "properties": { "id": 18, "rotation": 55, "name": "subestacion_cam5" }, "geometry": { "type": "Polygon", "coordinates": [ [ [ -100.28607925671281, 25.652723692877384 ], [ -100.286059216461567, 25.652719449082721 ], [ -100.286039512535339, 25.652713847584433 ], [ -100.286020236799217, 25.652706914502229 ], [ -100.286001479133105, 25.652698682160004 ], [ -100.285983326990376, 25.652689188939799 ], [ -100.28596586500133, 25.652678479104903 ], [ -100.285949174587572, 25.652666602589303 ], [ -100.285933333565467, 25.652653614766674 ], [ -100.285918415793262, 25.652639576191174 ], [ -100.285904490821835, 25.652624552318226 ], [ -100.285891623578195, 25.652608613196204 ], [ -100.285879874056249, 25.652591833139919 ], [ -100.285869297040321, 25.652574290386834 ], [ -100.285859941835938, 25.652556066727808 ], [ -100.28585185206974, 25.652537247130564 ], [ -100.285845065456655, 25.652517919341332 ], [ -100.285839613639823, 25.652498173475575 ], [ -100.2858355220378, 25.652478101595985 ], [ -100.285832809728149, 25.652457797287749 ], [ -100.285831489356482, 25.652437355219259 ], [ -100.2858315670819, 25.652416870700559 ], [ -100.285833042533326, 25.652396439239961 ], [ -100.285835908840198, 25.652376156098182 ], [ -100.286131351166105, 25.65242825055148 ], [ -100.28607925671281, 25.652723692877384 ] ] ] } },
{ "type": "Feature", "properties": { "id": 13, "rotation": -140, "name": "hundido_cam6" }, "geometry": { "type": "Polygon", "coordinates": [ [ [ -100.286300476246396, 25.652252642170605 ], [ -100.286320932020303, 25.652251554563914 ], [ -100.286341414328476, 25.652251865442391 ], [ -100.286361827671485, 25.6522535733593 ], [ -100.286382076872528, 25.65225667034974 ], [ -100.286402067522417, 25.652261141975938 ], [ -100.286421706416135, 25.652266967386819 ], [ -100.286440901989394, 25.652274119423051 ], [ -100.286459564737001, 25.652282564738922 ], [ -100.286477607649417, 25.652292263956948 ], [ -100.286494946602019, 25.652303171856143 ], [ -100.286511500751644, 25.652315237578474 ], [ -100.28652719291857, 25.652328404868054 ], [ -100.286541949932129, 25.652342612333083 ], [ -100.286555702994505, 25.652357793731422 ], [ -100.286568387979045, 25.652373878279828 ], [ -100.286579945743128, 25.652390790985915 ], [ -100.286590322397373, 25.652408452994674 ], [ -100.286599469567577, 25.652426781956816 ], [ -100.286607344598437, 25.652445692415309 ], [ -100.286613910775472, 25.6524650962001 ], [ -100.28661913748509, 25.652484902841476 ], [ -100.286623000356471, 25.652505019992528 ], [ -100.28662548137865, 25.652525353857207 ], [ -100.286326622969227, 25.652551500580032 ], [ -100.286300476246396, 25.652252642170605 ] ] ] } },
{ "type": "Feature", "properties": { "id": 20, "rotation": -160, "name": "JardinPiedraCam2" }, "geometry": { "type": "Polygon", "coordinates": [ [ [ -100.286814125804597, 25.652228451717423 ], [ -100.286832975962156, 25.652220433414183 ], [ -100.286852329361849, 25.652213720183223 ], [ -100.286872095770363, 25.652208343326489 ], [ -100.286892183030417, 25.652204327910109 ], [ -100.286912497482248, 25.652201692659215 ], [ -100.286932944414716, 25.652200449857443 ], [ -100.286953428490946, 25.65220060530191 ], [ -100.286973854206721, 25.652202158265933 ], [ -100.286994126327031, 25.652205101510841 ], [ -100.287014150333547, 25.65220942131236 ], [ -100.287033832864822, 25.65221509752973 ], [ -100.287053082156476, 25.652222103697564 ], [ -100.287071808452296, 25.652230407151361 ], [ -100.287089924448068, 25.65223996917484 ], [ -100.287107345673562, 25.652250745187299 ], [ -100.287123990903623, 25.652262684943704 ], [ -100.287139782536528, 25.652275732777522 ], [ -100.287154646935946, 25.652289827851742 ], [ -100.287168514802019, 25.652304904450826 ], [ -100.28718132147695, 25.652320892279018 ], [ -100.287193007246955, 25.652337716793678 ], [ -100.287203517629663, 25.652355299552251 ], [ -100.287212803619241, 25.652373558575015 ], [ -100.286940911283125, 25.652500344053536 ], [ -100.286814125804597, 25.652228451717423 ] ] ] } },
{ "type": "Feature", "properties": { "id": 21, "rotation": 55, "name": "JardinPiedraCam1" }, "geometry": { "type": "Polygon", "coordinates": [ [ [ -100.286882345056526, 25.652798411342772 ], [ -100.28686230480524, 25.652794167547651 ], [ -100.286842600879012, 25.652788566050273 ], [ -100.28682332514289, 25.652781632968068 ], [ -100.286804567476779, 25.652773400624934 ], [ -100.286786415334049, 25.652763907405639 ], [ -100.286768953345003, 25.652753197570743 ], [ -100.286752262931245, 25.652741321055142 ], [ -100.28673642190914, 25.652728333231604 ], [ -100.286721504136935, 25.652714294657013 ], [ -100.286707579165508, 25.652699270784066 ], [ -100.286694711921868, 25.652683331662043 ], [ -100.286682962399922, 25.652666551605758 ], [ -100.286672385383994, 25.652649008851764 ], [ -100.286663030179611, 25.652630785192738 ], [ -100.286654940413413, 25.652611965596403 ], [ -100.286648153800328, 25.652592637807171 ], [ -100.286642701983496, 25.652572891940505 ], [ -100.286638610381473, 25.652552820060915 ], [ -100.286635898071822, 25.652532515753588 ], [ -100.286634577700156, 25.652512073685099 ], [ -100.286634655425573, 25.652491589165489 ], [ -100.286636130877, 25.652471157705801 ], [ -100.286638997183914, 25.65245087456357 ], [ -100.286934439509821, 25.652502969016869 ], [ -100.286882345056526, 25.652798411342772 ] ] ] } },
{ "type": "Feature", "properties": { "id": 22, "rotation": 55, "name": "hundido_cam2" }, "geometry": { "type": "Polygon", "coordinates": [ [ [ -100.286429821855378, 25.65284555752196 ], [ -100.286409781605457, 25.652841313726636 ], [ -100.286390077675591, 25.652835712229258 ], [ -100.286370801943107, 25.652828779147054 ], [ -100.286352044276995, 25.65282054680392 ], [ -100.286333892130628, 25.652811053584625 ], [ -100.28631643014522, 25.652800343749728 ], [ -100.286299739731462, 25.652788467234128 ], [ -100.286283898709357, 25.65277547941059 ], [ -100.286268980933514, 25.652761440835999 ], [ -100.286255055965725, 25.652746416963051 ], [ -100.286242188722085, 25.652730477841029 ], [ -100.286230439200139, 25.652713697784744 ], [ -100.286219862180573, 25.65269615503075 ], [ -100.286210506979828, 25.652677931372633 ], [ -100.28620241721363, 25.652659111775389 ], [ -100.286195630600545, 25.652639783986157 ], [ -100.286190178783713, 25.65262003811949 ], [ -100.28618608718169, 25.65259996624081 ], [ -100.286183374872039, 25.652579661932574 ], [ -100.286182054500372, 25.652559219864084 ], [ -100.286182132222152, 25.652538735344475 ], [ -100.286183607677216, 25.652518303884786 ], [ -100.286186473982767, 25.652498020742758 ], [ -100.286481916308674, 25.652550115196057 ], [ -100.286429821855378, 25.65284555752196 ] ] ] } },
{ "type": "Feature", "properties": { "id": 23, "rotation": -10, "name": "hundido_cam3" }, "geometry": { "type": "Polygon", "coordinates": [ [ [ -100.286390705149174, 25.652725505660889 ], [ -100.286378389588194, 25.652741874793715 ], [ -100.28636498566992, 25.652757365320664 ], [ -100.286350555885278, 25.652771905021833 ], [ -100.286335167515048, 25.652785426103033 ], [ -100.286318892311087, 25.652797865524914 ], [ -100.28630180614708, 25.652809165287177 ], [ -100.286283988694763, 25.652819272707344 ], [ -100.286265523023744, 25.652828140658126 ], [ -100.286246495230429, 25.652835727793896 ], [ -100.286226994030571, 25.652841998739856 ], [ -100.28620711035181, 25.65284692425757 ], [ -100.286186936893486, 25.652850481382298 ], [ -100.28616656771554, 25.652852653529404 ], [ -100.286146097794685, 25.652853430570755 ], [ -100.28612562256238, 25.652852808883832 ], [ -100.286105237490105, 25.652850791367197 ], [ -100.286085037620055, 25.652847387427752 ], [ -100.286065117135863, 25.65284261293527 ], [ -100.28604556891149, 25.652836490150545 ], [ -100.286026484092858, 25.652829047622614 ], [ -100.28600795166129, 25.652820320050065 ], [ -100.285990058022421, 25.652810348125964 ], [ -100.285972886604981, 25.652799178343273 ], [ -100.286144959535889, 25.652553432729984 ], [ -100.286390705149174, 25.652725505660889 ] ] ] } },
{ "type": "Feature", "properties": { "id": 25, "rotation": 20, "name": "hundido_cam1" }, "geometry": { "type": "Polygon", "coordinates": [ [ [ -100.286508946709461, 25.653173187613312 ], [ -100.286490096554175, 25.65318120591655 ], [ -100.286470743154482, 25.653187919147509 ], [ -100.286450976745968, 25.653193296005153 ], [ -100.286430889485914, 25.653197311421533 ], [ -100.286410575034083, 25.653199946672427 ], [ -100.286390128105253, 25.653201189474199 ], [ -100.286369644025385, 25.653201034029731 ], [ -100.286349218313248, 25.653199481065709 ], [ -100.286328946192938, 25.653196537820801 ], [ -100.286308922182783, 25.653192218019282 ], [ -100.286289239651509, 25.653186541801912 ], [ -100.286269990363493, 25.653179535634077 ], [ -100.286251264064035, 25.653171232180281 ], [ -100.286233148071901, 25.653161670156802 ], [ -100.286215726842769, 25.653150894144343 ], [ -100.286199081612708, 25.653138954387938 ], [ -100.286183289983441, 25.65312590655412 ], [ -100.286168425580385, 25.653111811479899 ], [ -100.286154557714312, 25.653096734880815 ], [ -100.286141751039381, 25.653080747052623 ], [ -100.286130065269376, 25.653063922537054 ], [ -100.286119554886668, 25.65304633977939 ], [ -100.286110268894816, 25.653028080755721 ], [ -100.286382161230932, 25.6529012952772 ], [ -100.286508946709461, 25.653173187613312 ] ] ] } },
{ "type": "Feature", "properties": { "id": 26, "rotation": -170, "name": "hundido_cam4" }, "geometry": { "type": "Polygon", "coordinates": [ [ [ -100.285927602267776, 25.652663814427928 ], [ -100.285944773684591, 25.652652644645965 ], [ -100.28596266732346, 25.652642672721864 ], [ -100.285981199755028, 25.652633945149315 ], [ -100.28600028457366, 25.652626502621384 ], [ -100.286019832798033, 25.652620379837568 ], [ -100.286039753282225, 25.652615605345087 ], [ -100.286059953152275, 25.652612201404732 ], [ -100.286080338224551, 25.652610183888097 ], [ -100.286100813456855, 25.652609562201174 ], [ -100.28612128337771, 25.652610339242525 ], [ -100.286141652555656, 25.652612511389631 ], [ -100.286161826013981, 25.652616068514359 ], [ -100.286181709696379, 25.652620994032073 ], [ -100.286201210896238, 25.652627264978033 ], [ -100.286220238689552, 25.652634852113803 ], [ -100.286238704356933, 25.652643720064585 ], [ -100.286256521812888, 25.652653827484752 ], [ -100.286273607973257, 25.652665127247015 ], [ -100.286289883177218, 25.652677566668896 ], [ -100.286305271547448, 25.652691087750096 ], [ -100.28631970133209, 25.652705627450356 ], [ -100.286333105250364, 25.652721117979123 ], [ -100.286345420811969, 25.652737487110311 ], [ -100.286099675198685, 25.652909560041216 ], [ -100.285927602267776, 25.652663814427928 ] ] ] } },
{ "type": "Feature", "properties": { "id": 27, "rotation": -170, "name": "hundido_cam5" }, "geometry": { "type": "Polygon", "coordinates": [ [ [ -100.286099130590145, 25.652664544489756 ], [ -100.286116302006107, 25.652653374708276 ], [ -100.286134195644976, 25.652643402783266 ], [ -100.286152728076544, 25.652634675211626 ], [ -100.286171812895176, 25.652627232682786 ], [ -100.286191361119549, 25.65262110989897 ], [ -100.286211281607379, 25.652616335406488 ], [ -100.286231481477429, 25.652612931466134 ], [ -100.286251866549705, 25.652610913949498 ], [ -100.286272341778371, 25.652610292262576 ], [ -100.286292811702864, 25.652611069304836 ], [ -100.286313180877173, 25.652613241451032 ], [ -100.286333354335497, 25.65261679857667 ], [ -100.286353238017895, 25.652621724094384 ], [ -100.286372739217754, 25.652627995040344 ], [ -100.286391767011068, 25.652635582176114 ], [ -100.286410232682087, 25.652644450126896 ], [ -100.286428050134404, 25.652654557546153 ], [ -100.286445136294773, 25.652665857309326 ], [ -100.286461411502373, 25.652678296730297 ], [ -100.286476799868964, 25.652691817812407 ], [ -100.286491229653606, 25.652706357511757 ], [ -100.286504633575518, 25.652721848040525 ], [ -100.286516949134338, 25.652738217172139 ], [ -100.286271203521054, 25.652910290103044 ], [ -100.286099130590145, 25.652664544489756 ] ] ] } },
{ "type": "Feature", "properties": { "id": 28, "rotation": 55, "name": "subestacion_cam6" }, "geometry": { "type": "Polygon", "coordinates": [ [ [ -100.285838763266682, 25.652975696169303 ], [ -100.285818723015822, 25.652971452374 ], [ -100.285799019085957, 25.652965850876623 ], [ -100.285779743353473, 25.652958917794418 ], [ -100.285760985687361, 25.652950685451284 ], [ -100.285742833540994, 25.652941192231989 ], [ -100.285725371555586, 25.652930482397093 ], [ -100.285708681141827, 25.652918605881492 ], [ -100.285692840119722, 25.652905618057954 ], [ -100.285677922347517, 25.652891579483363 ], [ -100.285663997376091, 25.652876555610415 ], [ -100.28565113013245, 25.652860616488393 ], [ -100.285639380610505, 25.652843836432108 ], [ -100.285628803590939, 25.652826293678114 ], [ -100.285619448390193, 25.652808070019997 ], [ -100.285611358623996, 25.652789250422753 ], [ -100.285604572010911, 25.652769922633521 ], [ -100.285599120194078, 25.652750176766855 ], [ -100.285595028592056, 25.652730104888175 ], [ -100.285592316282404, 25.652709800579938 ], [ -100.285590995910738, 25.652689358511449 ], [ -100.285591073636155, 25.652668873991839 ], [ -100.285592549087582, 25.652648442532151 ], [ -100.28559541539407, 25.652628159390101 ], [ -100.285890857719977, 25.6526802538434 ], [ -100.285838763266682, 25.652975696169303 ] ] ] } },
{ "type": "Feature", "properties": { "id": 29, "rotation": 80, "name": "COLUMPIOSCAM3" }, "geometry": { "type": "Polygon", "coordinates": [ [ [ -100.2860111924536, 25.653255618541763 ], [ -100.285994823323549, 25.653243302980623 ], [ -100.285979332795236, 25.653229899059166 ], [ -100.28596479309634, 25.653215469275889 ], [ -100.285951272013321, 25.653200080907478 ], [ -100.28593883259235, 25.653183805700788 ], [ -100.285927532830087, 25.653166719539509 ], [ -100.285917425408101, 25.653148902087192 ], [ -100.285908557460047, 25.653130436416173 ], [ -100.285900970324278, 25.653111408622859 ], [ -100.285894699376499, 25.65309190742391 ], [ -100.285889773858784, 25.653072023741512 ], [ -100.285886216734056, 25.653051850283187 ], [ -100.28588404458786, 25.65303148110797 ], [ -100.285883267544691, 25.653011011184386 ], [ -100.285883889231613, 25.652990535953901 ], [ -100.285885906749158, 25.652970150881625 ], [ -100.285889310689512, 25.652949951012484 ], [ -100.285894085180175, 25.652930030526473 ], [ -100.285900207967629, 25.652910482302101 ], [ -100.285907650493741, 25.652891397483469 ], [ -100.285916378066744, 25.652872865050536 ], [ -100.285926349992209, 25.652854971413031 ], [ -100.285937519771224, 25.65283779999757 ], [ -100.286183265384508, 25.653009872928475 ], [ -100.2860111924536, 25.653255618541763 ] ] ] } },
{ "type": "Feature", "properties": { "id": 30, "rotation": 65, "name": "columpios_tierra" }, "geometry": { "type": "Polygon", "coordinates": [ [ [ -100.285777204261777, 25.653301845430352 ], [ -100.285758205394799, 25.653294186155104 ], [ -100.285739773502414, 25.653285248204607 ], [ -100.285721994528998, 25.653275073255823 ], [ -100.285704951362263, 25.653263708746632 ], [ -100.285688723470216, 25.65325120766374 ], [ -100.285673386515541, 25.653237628293024 ], [ -100.285659012002711, 25.653223033948048 ], [ -100.285645666950572, 25.653207492674479 ], [ -100.285633413586751, 25.653191076932668 ], [ -100.285622309034792, 25.653173863260232 ], [ -100.285612405074048, 25.653155931916441 ], [ -100.285603747881382, 25.653137366503866 ], [ -100.285596377816532, 25.653118253583667 ], [ -100.285590329247484, 25.653098682269952 ], [ -100.285585630372211, 25.653078743811417 ], [ -100.285582303098622, 25.653058531172061 ], [ -100.285580362939058, 25.653038138591906 ], [ -100.285579818944811, 25.653017661150439 ], [ -100.285580673647914, 25.652997194322776 ], [ -100.285582923061142, 25.652976833534918 ], [ -100.285586556703478, 25.65295667371765 ], [ -100.285591557629218, 25.652936808867704 ], [ -100.285597902518546, 25.65291733160112 ], [ -100.285879810304777, 25.653019937644117 ], [ -100.285777204261777, 25.653301845430352 ] ] ] } },
{ "type": "Feature", "properties": { "id": 31, "rotation": -45, "name": "columpios_cam4" }, "geometry": { "type": "Polygon", "coordinates": [ [ [ -100.286181163277888, 25.653021252248909 ], [ -100.286180463910554, 25.65304172497326 ], [ -100.286178369064132, 25.653062102243435 ], [ -100.286174888504306, 25.653082289053597 ], [ -100.286170038467375, 25.653102191280592 ], [ -100.286163841556103, 25.65312171613277 ], [ -100.286156326670593, 25.653140772576077 ], [ -100.28614752884458, 25.653159271761066 ], [ -100.286137489099914, 25.653177127433988 ], [ -100.286126254246469, 25.653194256346065 ], [ -100.2861138766675, 25.653210578632748 ], [ -100.286100414068628, 25.653226018192068 ], [ -100.286085929223177, 25.653240503038429 ], [ -100.286070489662947, 25.653253965636392 ], [ -100.286054167376264, 25.653266343217179 ], [ -100.286037038466006, 25.653277578070625 ], [ -100.286019182789445, 25.653287617815291 ], [ -100.286000683605366, 25.653296415639485 ], [ -100.285981627162968, 25.653303930525905 ], [ -100.28596210231261, 25.653310127435358 ], [ -100.285942200083795, 25.653314977475926 ], [ -100.285922013274089, 25.653318458032569 ], [ -100.285901636005278, 25.653320552880356 ], [ -100.285881163277892, 25.653321252248908 ], [ -100.285881163277892, 25.653021252248909 ], [ -100.286181163277888, 25.653021252248909 ] ] ] } },
{ "type": "Feature", "properties": { "id": 32, "rotation": -100, "name": "COLUMPIOSCAM2" }, "geometry": { "type": "Polygon", "coordinates": [ [ [ -100.285974862602657, 25.652957085062557 ], [ -100.285991231736247, 25.652969400624894 ], [ -100.28600672226456, 25.652982804544532 ], [ -100.286021261963455, 25.652997234329629 ], [ -100.286034783046475, 25.653012622698039 ], [ -100.286047222467445, 25.653028897904729 ], [ -100.286058522229709, 25.653045984066008 ], [ -100.286068629651695, 25.653063801518325 ], [ -100.286077497599749, 25.653082267188434 ], [ -100.286085084735518, 25.653101294981749 ], [ -100.286091355683297, 25.653120796181607 ], [ -100.286096281201011, 25.653140679864006 ], [ -100.28609983832574, 25.65316085332233 ], [ -100.286102010471936, 25.653181222497548 ], [ -100.286102787515105, 25.653201692421131 ], [ -100.286102165828183, 25.653222167650707 ], [ -100.286100148310638, 25.653242552722983 ], [ -100.286096744370283, 25.653262752593033 ], [ -100.286091969879621, 25.653282673079044 ], [ -100.286085847095805, 25.653302221303417 ], [ -100.286078404566055, 25.653321306122049 ], [ -100.286069676993051, 25.653339838553162 ], [ -100.286059705067586, 25.653357732191576 ], [ -100.286048535285033, 25.65337490360675 ], [ -100.285802789671749, 25.653202830675845 ], [ -100.285974862602657, 25.652957085062557 ] ] ] } },
{ "type": "Feature", "properties": { "id": 33, "rotation": 90, "name": "hundido_cam7" }, "geometry": { "type": "Polygon", "coordinates": [ [ [ -100.286113101108683, 25.652762857158653 ], [ -100.286099119235573, 25.652747886228095 ], [ -100.286086191612398, 25.652731996040981 ], [ -100.286074378505859, 25.652715260685905 ], [ -100.28606373500223, 25.652697758189785 ], [ -100.286054310723543, 25.652679570157485 ], [ -100.286046149612943, 25.652660781390292 ], [ -100.286039289716413, 25.652641479489827 ], [ -100.286033763019063, 25.652621754450589 ], [ -100.286029595288696, 25.652601698240684 ], [ -100.286026805959395, 25.652581404369808 ], [ -100.286025408036934, 25.652560967458154 ], [ -100.286025408036934, 25.652540482791661 ], [ -100.286026805959395, 25.652520045880006 ], [ -100.286029595288696, 25.652499752009131 ], [ -100.286033763019063, 25.652479695798316 ], [ -100.286039289716413, 25.652459970759079 ], [ -100.286046149612943, 25.652440668859523 ], [ -100.286054310723543, 25.652421880091421 ], [ -100.28606373500223, 25.65240369206003 ], [ -100.286074378505859, 25.652386189563 ], [ -100.286086191612398, 25.652369454207015 ], [ -100.286099119235573, 25.65235356402081 ], [ -100.286113101108683, 25.65233859308994 ], [ -100.286325233143032, 25.652550725124296 ], [ -100.286113101108683, 25.652762857158653 ] ] ] } },
{ "type": "Feature", "properties": { "id": 35, "rotation": 100, "name": "COLUMPIOSCAM1" }, "geometry": { "type": "Polygon", "coordinates": [ [ [ -100.285555175124216, 25.653374707056631 ], [ -100.285544005342658, 25.653357535641586 ], [ -100.285534033420831, 25.653339642003171 ], [ -100.285525305847827, 25.653321109572058 ], [ -100.285517863318077, 25.653302024753426 ], [ -100.285511740534261, 25.653282476529053 ], [ -100.285506966043599, 25.653262556043043 ], [ -100.285503562103244, 25.653242356172992 ], [ -100.285501544585699, 25.653221971100717 ], [ -100.285500922898777, 25.653201495871141 ], [ -100.285501699941946, 25.653181025947557 ], [ -100.285503872088142, 25.65316065677143 ], [ -100.285507429212871, 25.653140483314015 ], [ -100.285512354730585, 25.653120599631617 ], [ -100.285518625674726, 25.653101098431758 ], [ -100.285526212810495, 25.653082070638444 ], [ -100.285535080762187, 25.653063604968334 ], [ -100.285545188180535, 25.653045787516017 ], [ -100.285556487946437, 25.653028701354739 ], [ -100.285568927367407, 25.653012426148049 ], [ -100.285582448446789, 25.652997037778729 ], [ -100.285596988149322, 25.652982607994542 ], [ -100.285612478677635, 25.652969204074903 ], [ -100.285628847806592, 25.652956888512438 ], [ -100.285800920737501, 25.653202634125726 ], [ -100.285555175124216, 25.653374707056631 ] ] ] } },
{ "type": "Feature", "properties": { "id": 34, "rotation": 10, "name": "taichi" }, "geometry": { "type": "Polygon", "coordinates": [ [ [ -100.287222617496269, 25.652251600473718 ], [ -100.287205446082211, 25.652262770256126 ], [ -100.287187552443342, 25.652272742180227 ], [ -100.287169020011774, 25.652281469752776 ], [ -100.287149935193142, 25.652288912281616 ], [ -100.287130386968769, 25.652295035065432 ], [ -100.287110466484577, 25.652299809557913 ], [ -100.287090266614527, 25.652303213498268 ], [ -100.287069881542251, 25.652305231014903 ], [ -100.287049406309947, 25.652305852701826 ], [ -100.287028936389092, 25.652305075659566 ], [ -100.287008567211146, 25.65230290351337 ], [ -100.286988393756459, 25.652299346387732 ], [ -100.286968510074061, 25.652294420870017 ], [ -100.286949008874203, 25.652288149924058 ], [ -100.286929981080888, 25.652280562788288 ], [ -100.286911515409869, 25.652271694837506 ], [ -100.286893697957552, 25.652261587418248 ], [ -100.286876611793545, 25.652250287655075 ], [ -100.286860336589584, 25.652237848234105 ], [ -100.286844948219354, 25.652224327151995 ], [ -100.286830518434712, 25.652209787451735 ], [ -100.286817114516438, 25.652194296923877 ], [ -100.286804798952076, 25.652177927791335 ], [ -100.287050544565361, 25.65200585486043 ], [ -100.287222617496269, 25.652251600473718 ] ] ] } }
]
}
